
# Worst residual: 13.14 km
# MJD 59340.000000 (2021 May  6  0:00)
2010-050B = RV223A9 = Chang'e 2 booster
1 37175U 10050B   21126.49919926  .00000000  00000-0  00000-0 2 12503
2 37175 028.4878 346.4479 8270333 342.4179 146.6011 00.02002623    09

# Worst residual: 15.88 km
# MJD 59341.000000 (2021 May  7  0:00)
2010-050B = RV223A9 = Chang'e 2 booster
1 37175U 10050B   21127.49919926  .00000000  00000-0  00000-0 2 12504
2 37175 028.3490 346.5703 8234416 342.3335 154.0556 00.01997603    01

# Worst residual: 18.47 km
# MJD 59342.000000 (2021 May  8  0:00)
2010-050B = RV223A9 = Chang'e 2 booster
1 37175U 10050B   21128.49919926  .00000000  00000-0  00000-0 2 12505
2 37175 028.2062 346.6898 8191713 342.2268 161.5869 00.01991523    02

# Worst residual: 20.80 km
# MJD 59343.000000 (2021 May  9  0:00)
2010-050B = RV223A9 = Chang'e 2 booster
1 37175U 10050B   21129.49919926  .00000000  00000-0  00000-0 2 12506
2 37175 028.0649 346.8016 8143085 342.0911 169.2093 00.01984375    08

# Worst residual: 22.77 km
# MJD 59344.000000 (2021 May 10  0:00)
2010-050B = RV223A9 = Chang'e 2 booster
1 37175U 10050B   21130.49919926  .00000000  00000-0  00000-0 2 12508
2 37175 027.9300 346.9021 8089559 341.9200 176.9335 00.01976121    05

# Worst residual: 24.51 km
# MJD 59345.000000 (2021 May 11  0:00)
2010-050B = RV223A9 = Chang'e 2 booster
1 37175U 10050B   21131.49919926  .00000000  00000-0  00000-0 2 12509
2 37175 027.8059 346.9889 8032353 341.7077 184.7663 00.01966700    00

# Worst residual: 25.75 km
# MJD 59346.000000 (2021 May 12  0:00)
2010-050B = RV223A9 = Chang'e 2 booster
1 37175U 10050B   21132.49919926  .00000000  00000-0  00000-0 2 12500
2 37175 027.6959 347.0606 7972850 341.4493 192.7101 00.01956042    03

# Worst residual: 26.70 km
# MJD 59347.000000 (2021 May 13  0:00)
2010-050B = RV223A9 = Chang'e 2 booster
1 37175U 10050B   21133.49919926  .00000000  00000-0  00000-0 2 12501
2 37175 027.6025 347.1168 7912608 341.1408 200.7632 00.01944072    08

# Worst residual: 27.07 km
# MJD 59348.000000 (2021 May 14  0:00)
2010-050B = RV223A9 = Chang'e 2 booster
1 37175U 10050B   21134.49919926  .00000000  00000-0  00000-0 2 12502
2 37175 027.5275 347.1581 7853304 340.7802 208.9194 00.01930724    05

# Worst residual: 27.02 km
# MJD 59349.000000 (2021 May 15  0:00)
2010-050B = RV223A9 = Chang'e 2 booster
1 37175U 10050B   21135.49919926  .00000000  00000-0  00000-0 2 12503
2 37175 027.4713 347.1861 7796709 340.3673 217.1680 00.01915939    02

# Worst residual: 26.47 km
# MJD 59350.000000 (2021 May 16  0:00)
2010-050B = RV223A9 = Chang'e 2 booster
1 37175U 10050B   21136.49919926  .00000000  00000-0  00000-0 2 12504
2 37175 027.4337 347.2027 7744616 339.9043 225.4948 00.01899662    07

# Worst residual: 25.60 km
# MJD 59351.000000 (2021 May 17  0:00)
2010-050B = RV223A9 = Chang'e 2 booster
1 37175U 10050B   21137.49919926  .00000000  00000-0  00000-0 2 12505
2 37175 027.4132 347.2106 7698749 339.3957 233.8817 00.01881845    03

# Worst residual: 24.27 km
# MJD 59352.000000 (2021 May 18  0:00)
2010-050B = RV223A9 = Chang'e 2 booster
1 37175U 10050B   21138.49919926  .00000000  00000-0  00000-0 2 12506
2 37175 027.4074 347.2125 7660595 338.8487 242.3066 00.01862423    01

# Worst residual: 27.38 km
# MJD 59353.000000 (2021 May 19  0:00)
2010-050B = RV223A9 = Chang'e 2 booster
1 37175U 10050B   21139.49919926  .00000000  00000-0  00000-0 2 12507
2 37175 027.4127 347.2112 7631200 338.2727 250.7410 00.01841322    09

# Worst residual: 29.75 km
# MJD 59354.000000 (2021 May 20  0:00)
2010-050B = RV223A9 = Chang'e 2 booster
1 37175U 10050B   21140.49919926  .00000000  00000-0  00000-0 2 12509
2 37175 027.4255 347.2088 7610927 337.6796 259.1442 00.01818509    04

# Worst residual: 31.23 km
# MJD 59355.000000 (2021 May 21  0:00)
2010-050B = RV223A9 = Chang'e 2 booster
1 37175U 10050B   21141.49919926  .00000000  00000-0  00000-0 2 12500
2 37175 027.4432 347.2066 7599466 337.0861 267.4555 00.01794174    06

# Worst residual: 31.08 km
# MJD 59356.000000 (2021 May 22  0:00)
2010-050B = RV223A9 = Chang'e 2 booster
1 37175U 10050B   21142.49919926  .00000000  00000-0  00000-0 2 12501
2 37175 027.4653 347.2056 7596176 336.5170 275.5938 00.01768993    07

# Worst residual: 29.56 km
# MJD 59357.000000 (2021 May 23  0:00)
2010-050B = RV223A9 = Chang'e 2 booster
1 37175U 10050B   21143.49919926  .00000000  00000-0  00000-0 2 12502
2 37175 027.4909 347.2065 7600338 336.0031 283.4769 00.01744120    04

# Worst residual: 26.81 km
# MJD 59358.000000 (2021 May 24  0:00)
2010-050B = RV223A9 = Chang'e 2 booster
1 37175U 10050B   21144.49919926  .00000000  00000-0  00000-0 2 12503
2 37175 027.5170 347.2096 7610828 335.5739 291.0436 00.01720897    04

# Worst residual: 22.76 km
# MJD 59359.000000 (2021 May 25  0:00)
2010-050B = RV223A9 = Chang'e 2 booster
1 37175U 10050B   21145.49919926  .00000000  00000-0  00000-0 2 12504
2 37175 027.5381 347.2141 7625670 335.2479 298.2654 00.01700496    02

# Worst residual: 17.87 km
# MJD 59360.000000 (2021 May 26  0:00)
2010-050B = RV223A9 = Chang'e 2 booster
1 37175U 10050B   21146.49919926  .00000000  00000-0  00000-0 2 12505
2 37175 027.5486 347.2174 7642156 335.0290 305.1460 00.01683756    03

# Worst residual: 12.63 km
# MJD 59361.000000 (2021 May 27  0:00)
2010-050B = RV223A9 = Chang'e 2 booster
1 37175U 10050B   21147.49919926  .00000000  00000-0  00000-0 2 12506
2 37175 027.5450 347.2157 7657438 334.9072 311.7161 00.01671159    05

# Worst residual: 7.37 km
# MJD 59362.000000 (2021 May 28  0:00)
2010-050B = RV223A9 = Chang'e 2 booster
1 37175U 10050B   21148.49919926  .00000000  00000-0  00000-0 2 12507
2 37175 027.5271 347.2049 7669176 334.8637 318.0259 00.01662878    00

# Worst residual: 2.68 km
# MJD 59363.000000 (2021 May 29  0:00)
2010-050B = RV223A9 = Chang'e 2 booster
1 37175U 10050B   21149.49919926  .00000000  00000-0  00000-0 2 12508
2 37175 027.4977 347.1821 7675938 334.8769 324.1363 00.01658884    04

# Worst residual: 2.13 km
# MJD 59364.000000 (2021 May 30  0:00)
2010-050B = RV223A9 = Chang'e 2 booster
1 37175U 10050B   21150.49919926  .00000000  00000-0  00000-0 2 12500
2 37175 027.4621 347.1462 7677255 334.9281 330.1104 00.01659079    02
